<?xml version="1.0" encoding="UTF-8"?>
<gpx xmlns="http://www.topografix.com/GPX/1/1" version="1.1" creator="FME(R) 2021.1.0.1">
	<metadata>
		<time>2025-10-20T13:45:30+02:00</time>
		<bounds minlat="52.34756" minlon="13.110591" maxlat="52.657069" maxlon="13.743229"/>
	</metadata>
	<wpt lat="52.383242" lon="13.687289">
		<name>BE-087</name>
		<cmt>Am Zwiebusch, Jg. 33a2</cmt>
		<desc>Am Zwiebusch, Jg. 33a2</desc>
		<src>Berliner Forsten</src>
	</wpt>
	<wpt lat="52.423938" lon="13.681215">
		<name>BE-052</name>
		<cmt>Bushaltestelle Odernheimer Str., Jg. 182</cmt>
		<desc>Bushaltestelle Odernheimer Str., Jg. 182</desc>
		<src>Berliner Forsten</src>
	</wpt>
	<wpt lat="52.422265" lon="13.705197">
		<name>BE-053</name>
		<cmt>Schönhorster Str./ Am Waldhang, Jg. 165b6</cmt>
		<desc>Schönhorster Str./ Am Waldhang, Jg. 165b6</desc>
		<src>Berliner Forsten</src>
	</wpt>
	<wpt lat="52.454759" lon="13.701626">
		<name>BE-060</name>
		<cmt>Am Erlengrund / Str. nach Fichtenau</cmt>
		<desc>Am Erlengrund / Str. nach Fichtenau</desc>
		<src>Berliner Forsten</src>
	</wpt>
	<wpt lat="52.450553" lon="13.730428">
		<name>BE-061</name>
		<cmt>Waldstr., Fontanestr., Jg. 220 Waldeingang</cmt>
		<desc>Waldstr., Fontanestr., Jg. 220 Waldeingang</desc>
		<src>Berliner Forsten</src>
	</wpt>
	<wpt lat="52.4347" lon="13.743229">
		<name>BE-062</name>
		<cmt>Fichtenauer Weg 22, Jg. 213 Waldeingang</cmt>
		<desc>Fichtenauer Weg 22, Jg. 213 Waldeingang</desc>
		<src>Berliner Forsten</src>
	</wpt>
	<wpt lat="52.463846" lon="13.655434">
		<name>BE-067</name>
		<cmt>Schöneicher Landstr., Pumpstation, Jg. 283 / Jg. 278</cmt>
		<desc>Schöneicher Landstr., Pumpstation, Jg. 283 / Jg. 278</desc>
		<src>Berliner Forsten</src>
	</wpt>
	<wpt lat="52.471582" lon="13.629237">
		<name>BE-068</name>
		<cmt>Dahlwitzer Landstr 181, RFö Friedrichshagen Parkpl.</cmt>
		<desc>Dahlwitzer Landstr 181, RFö Friedrichshagen Parkpl.</desc>
		<src>Berliner Forsten</src>
	</wpt>
	<wpt lat="52.45881" lon="13.605857">
		<name>BE-069</name>
		<cmt>Hinter dem Kurpark, Waldeingang, Jg. 316</cmt>
		<desc>Hinter dem Kurpark, Waldeingang, Jg. 316</desc>
		<src>Berliner Forsten</src>
	</wpt>
	<wpt lat="52.465761" lon="13.597195">
		<name>BE-070</name>
		<cmt>Genovevastr./ Däumlingsweg, Waldspielpl. Mittelheide</cmt>
		<desc>Genovevastr./ Däumlingsweg, Waldspielpl. Mittelheide</desc>
		<src>Berliner Forsten</src>
	</wpt>
	<wpt lat="52.474029" lon="13.599373">
		<name>BE-071</name>
		<cmt>Straßenbahnwendeschleife Mahlsdorf Süd</cmt>
		<desc>Straßenbahnwendeschleife Mahlsdorf Süd</desc>
		<src>Berliner Forsten</src>
	</wpt>
	<wpt lat="52.476963" lon="13.573335">
		<name>BE-072</name>
		<cmt>Deutschhofer Allee 56, Waldeingang</cmt>
		<desc>Deutschhofer Allee 56, Waldeingang</desc>
		<src>Berliner Forsten</src>
	</wpt>
	<wpt lat="52.458371" lon="13.562011">
		<name>BE-073</name>
		<cmt>Rudolf-Rühl-Allee, Abzweig Stadion-Parkplatz</cmt>
		<desc>Rudolf-Rühl-Allee, Abzweig Stadion-Parkplatz</desc>
		<src>Berliner Forsten</src>
	</wpt>
	<wpt lat="52.448323" lon="13.550768">
		<name>BE-074</name>
		<cmt>Oberspreestr., Waldeingang ggü. Bundeswehr</cmt>
		<desc>Oberspreestr., Waldeingang ggü. Bundeswehr</desc>
		<src>Berliner Forsten</src>
	</wpt>
	<wpt lat="52.480418" lon="13.486829">
		<name>BE-075</name>
		<cmt>Dammweg 1, RFö Wuhlheide</cmt>
		<desc>Dammweg 1, RFö Wuhlheide</desc>
		<src>Berliner Forsten</src>
	</wpt>
	<wpt lat="52.376237" lon="13.609992">
		<name>BE-080</name>
		<cmt>Hirtenfließ Waldeingang, Jg. 48</cmt>
		<desc>Hirtenfließ Waldeingang, Jg. 48</desc>
		<src>Berliner Forsten</src>
	</wpt>
	<wpt lat="52.408955" lon="13.594268">
		<name>BE-081</name>
		<cmt>Rabindranath-Tagore-Str., Waldparkplatz</cmt>
		<desc>Rabindranath-Tagore-Str., Waldparkplatz</desc>
		<src>Berliner Forsten</src>
	</wpt>
	<wpt lat="52.403756" lon="13.592724">
		<name>BE-082</name>
		<cmt>Adlergestell / Rabindranath-Tagore-Str., Waldeingang</cmt>
		<desc>Adlergestell / Rabindranath-Tagore-Str., Waldeingang</desc>
		<src>Berliner Forsten</src>
	</wpt>
	<wpt lat="52.401565" lon="13.624734">
		<name>BE-083</name>
		<cmt>Sportpromenade 15, Tramhaltest. Richtershorn</cmt>
		<desc>Sportpromenade 15, Tramhaltest. Richtershorn</desc>
		<src>Berliner Forsten</src>
	</wpt>
	<wpt lat="52.457958" lon="13.495134">
		<name>BE-084</name>
		<cmt>Südostallee, Jg. 138 / Jg. 140, Waldeingang</cmt>
		<desc>Südostallee, Jg. 138 / Jg. 140, Waldeingang</desc>
		<src>Berliner Forsten</src>
	</wpt>
	<wpt lat="52.451431" lon="13.488377">
		<name>BE-085</name>
		<cmt>Königsheideweg, Pumpwerk Johannisthal</cmt>
		<desc>Königsheideweg, Pumpwerk Johannisthal</desc>
		<src>Berliner Forsten</src>
	</wpt>
	<wpt lat="52.390597" lon="13.62432">
		<name>BE-086</name>
		<cmt>Adlergestell, RFö Schmöckwitz</cmt>
		<desc>Adlergestell, RFö Schmöckwitz</desc>
		<src>Berliner Forsten</src>
	</wpt>
	<wpt lat="52.370635" lon="13.684114">
		<name>BE-088</name>
		<cmt>Wernsdorfer Str., ggü. Campingplatz Krossinsee</cmt>
		<desc>Wernsdorfer Str., ggü. Campingplatz Krossinsee</desc>
		<src>Berliner Forsten</src>
	</wpt>
	<wpt lat="52.374237" lon="13.654624">
		<name>BE-089</name>
		<cmt>Wernsdorfer Str. 26, Parkplatz Badewiese</cmt>
		<desc>Wernsdorfer Str. 26, Parkplatz Badewiese</desc>
		<src>Berliner Forsten</src>
	</wpt>
	<wpt lat="52.34756" lon="13.645795">
		<name>BE-090</name>
		<cmt>Parkplatz an der FFW Rauchfangswerder</cmt>
		<desc>Parkplatz an der FFW Rauchfangswerder</desc>
		<src>Berliner Forsten</src>
	</wpt>
	<wpt lat="52.404427" lon="13.69819">
		<name>BE-076</name>
		<cmt>Gosener Landstr, Parkpl. / Bushaltest. Gosener Kanal</cmt>
		<desc>Gosener Landstr, Parkpl. / Bushaltest. Gosener Kanal</desc>
		<src>Berliner Forsten</src>
	</wpt>
	<wpt lat="52.407459" lon="13.675176">
		<name>BE-077</name>
		<cmt>Gosener Landstr., ggü. Friedhof Müggelheim</cmt>
		<desc>Gosener Landstr., ggü. Friedhof Müggelheim</desc>
		<src>Berliner Forsten</src>
	</wpt>
	<wpt lat="52.405742" lon="13.653687">
		<name>BE-079</name>
		<cmt>Sobernheimer Str., Waldparkplatz</cmt>
		<desc>Sobernheimer Str., Waldparkplatz</desc>
		<src>Berliner Forsten</src>
	</wpt>
	<wpt lat="52.467731" lon="13.673433">
		<name>BE-063</name>
		<cmt>Schöneicher Landstr., Abt. 261-267</cmt>
		<desc>Schöneicher Landstr., Abt. 261-267</desc>
		<src>Berliner Forsten</src>
	</wpt>
	<wpt lat="52.450645" lon="13.690633">
		<name>BE-064</name>
		<cmt>Ingeborg-Hunziger-Str., S-Rahnsdorf</cmt>
		<desc>Ingeborg-Hunziger-Str., S-Rahnsdorf</desc>
		<src>Berliner Forsten</src>
	</wpt>
	<wpt lat="52.449831" lon="13.662658">
		<name>BE-065</name>
		<cmt>Fürstenwalder Damm / Müggelseedamm</cmt>
		<desc>Fürstenwalder Damm / Müggelseedamm</desc>
		<src>Berliner Forsten</src>
	</wpt>
	<wpt lat="52.448139" lon="13.612132">
		<name>BE-066</name>
		<cmt>Müggelseedamm / Hahns Mühle, Waldeingang ggü.</cmt>
		<desc>Müggelseedamm / Hahns Mühle, Waldeingang ggü.</desc>
		<src>Berliner Forsten</src>
	</wpt>
	<wpt lat="52.442909" lon="13.622784">
		<name>BE-054</name>
		<cmt>Müggelschlößchenweg Waldparkplatz</cmt>
		<desc>Müggelschlößchenweg Waldparkplatz</desc>
		<src>Berliner Forsten</src>
	</wpt>
	<wpt lat="52.434795" lon="13.602818">
		<name>BE-055</name>
		<cmt>Müggelheimer Damm / Bushaltestelle Kienappelweg</cmt>
		<desc>Müggelheimer Damm / Bushaltestelle Kienappelweg</desc>
		<src>Berliner Forsten</src>
	</wpt>
	<wpt lat="52.424442" lon="13.629417">
		<name>BE-056</name>
		<cmt>Müggelheimer Damm, Waldparkplatz am Rübezahl</cmt>
		<desc>Müggelheimer Damm, Waldparkplatz am Rübezahl</desc>
		<src>Berliner Forsten</src>
	</wpt>
	<wpt lat="52.418571" lon="13.615357">
		<name>BE-057</name>
		<cmt>Str zum Müggelturm, Waldparkpl Schmetterlingshorst</cmt>
		<desc>Str zum Müggelturm, Waldparkpl Schmetterlingshorst</desc>
		<src>Berliner Forsten</src>
	</wpt>
	<wpt lat="52.416964" lon="13.653507">
		<name>BE-058</name>
		<cmt>Müggelheimer Damm / Straße zum Müggelhort</cmt>
		<desc>Müggelheimer Damm / Straße zum Müggelhort</desc>
		<src>Berliner Forsten</src>
	</wpt>
	<wpt lat="52.420856" lon="13.63495">
		<name>BE-059</name>
		<cmt>Lehrkabinett Teufelssee</cmt>
		<desc>Lehrkabinett Teufelssee</desc>
		<src>Berliner Forsten</src>
	</wpt>
	<wpt lat="52.459681" lon="13.262119">
		<name>BE-033</name>
		<cmt>Hüttenweg 53, RFö Dachsberg</cmt>
		<desc>Hüttenweg 53, RFö Dachsberg</desc>
		<src>Berliner Forsten</src>
	</wpt>
	<wpt lat="52.467751" lon="13.246763">
		<name>BE-034</name>
		<cmt>Hüttenweg/Königsallee, Waldparkpl am Kleinen Stern</cmt>
		<desc>Hüttenweg/Königsallee, Waldparkpl am Kleinen Stern</desc>
		<src>Berliner Forsten</src>
	</wpt>
	<wpt lat="52.447509" lon="13.228843">
		<name>BE-035</name>
		<cmt>Fischerhüttenweg, Waldparkplatz</cmt>
		<desc>Fischerhüttenweg, Waldparkplatz</desc>
		<src>Berliner Forsten</src>
	</wpt>
	<wpt lat="52.504913" lon="13.25336">
		<name>BE-036</name>
		<cmt>Teufelsseechaussee / Waldschulallee, Waldparkpl.</cmt>
		<desc>Teufelsseechaussee / Waldschulallee, Waldparkpl.</desc>
		<src>Berliner Forsten</src>
	</wpt>
	<wpt lat="52.493049" lon="13.23776">
		<name>BE-037</name>
		<cmt>Teufelsseechaussee, Waldparkplatz Teufelsberg</cmt>
		<desc>Teufelsseechaussee, Waldparkplatz Teufelsberg</desc>
		<src>Berliner Forsten</src>
	</wpt>
	<wpt lat="52.48925" lon="13.259631">
		<name>BE-038</name>
		<cmt>Eichkampstr., Waldparkplatz Schmetterlingsplatz</cmt>
		<desc>Eichkampstr., Waldparkplatz Schmetterlingsplatz</desc>
		<src>Berliner Forsten</src>
	</wpt>
	<wpt lat="52.48975" lon="13.251956">
		<name>BE-039</name>
		<cmt>Eichkampstr. 166, RFö Eichkamp</cmt>
		<desc>Eichkampstr. 166, RFö Eichkamp</desc>
		<src>Berliner Forsten</src>
	</wpt>
	<wpt lat="52.493251" lon="13.198899">
		<name>BE-040</name>
		<cmt>Straße am Schildhorn, Waldparkplatz Schildhorn</cmt>
		<desc>Straße am Schildhorn, Waldparkplatz Schildhorn</desc>
		<src>Berliner Forsten</src>
	</wpt>
	<wpt lat="52.478504" lon="13.197739">
		<name>BE-041</name>
		<cmt>Havelchaussee, Parkplatz Grunewaldturm</cmt>
		<desc>Havelchaussee, Parkplatz Grunewaldturm</desc>
		<src>Berliner Forsten</src>
	</wpt>
	<wpt lat="52.469258" lon="13.197622">
		<name>BE-042</name>
		<cmt>Havelchaussee, Parkplatz Lieper Bucht</cmt>
		<desc>Havelchaussee, Parkplatz Lieper Bucht</desc>
		<src>Berliner Forsten</src>
	</wpt>
	<wpt lat="52.469514" lon="13.235725">
		<name>BE-043</name>
		<cmt>Hüttenweg, Parkplatz Am Großen Stern</cmt>
		<desc>Hüttenweg, Parkplatz Am Großen Stern</desc>
		<src>Berliner Forsten</src>
	</wpt>
	<wpt lat="52.406438" lon="13.666994">
		<name>BE-078</name>
		<cmt>Gosener Damm 42, RFö Müggelheim</cmt>
		<desc>Gosener Damm 42, RFö Müggelheim</desc>
		<src>Berliner Forsten</src>
	</wpt>
	<wpt lat="52.441264" lon="13.200357">
		<name>BE-044</name>
		<cmt>Kronprinzessinnenweg / Havelchaussee</cmt>
		<desc>Kronprinzessinnenweg / Havelchaussee</desc>
		<src>Berliner Forsten</src>
	</wpt>
	<wpt lat="52.454551" lon="13.190009">
		<name>BE-045</name>
		<cmt>Havelchaussee, Parkplatz Große Steinlanke</cmt>
		<desc>Havelchaussee, Parkplatz Große Steinlanke</desc>
		<src>Berliner Forsten</src>
	</wpt>
	<wpt lat="52.433791" lon="13.188958">
		<name>BE-046</name>
		<cmt>Kronprinzessinnenweg / Wannseebadweg</cmt>
		<desc>Kronprinzessinnenweg / Wannseebadweg</desc>
		<src>Berliner Forsten</src>
	</wpt>
	<wpt lat="52.421095" lon="13.114655">
		<name>BE-047</name>
		<cmt>Nikolskoer Weg / Moorlakeweg</cmt>
		<desc>Nikolskoer Weg / Moorlakeweg</desc>
		<src>Berliner Forsten</src>
	</wpt>
	<wpt lat="52.428268" lon="13.124476">
		<name>BE-048</name>
		<cmt>Pfaueninselchaussee, Parkplatz</cmt>
		<desc>Pfaueninselchaussee, Parkplatz</desc>
		<src>Berliner Forsten</src>
	</wpt>
	<wpt lat="52.417131" lon="13.176826">
		<name>BE-049</name>
		<cmt>Stahnsdorfer Damm 3, RFö Dreilinden</cmt>
		<desc>Stahnsdorfer Damm 3, RFö Dreilinden</desc>
		<src>Berliner Forsten</src>
	</wpt>
	<wpt lat="52.412721" lon="13.110591">
		<name>BE-050</name>
		<cmt>Rödenbecksteig / Am Waldrand</cmt>
		<desc>Rödenbecksteig / Am Waldrand</desc>
		<src>Berliner Forsten</src>
	</wpt>
	<wpt lat="52.408481" lon="13.143878">
		<name>BE-051</name>
		<cmt>Kohlhasenbrücker Straße, Parkplatz</cmt>
		<desc>Kohlhasenbrücker Straße, Parkplatz</desc>
		<src>Berliner Forsten</src>
	</wpt>
	<wpt lat="52.645495" lon="13.468799">
		<name>BE-091</name>
		<cmt>Schönerlinder Chaussee, Parkplatz, Jg. 507</cmt>
		<desc>Schönerlinder Chaussee, Parkplatz, Jg. 507</desc>
		<src>Berliner Forsten</src>
	</wpt>
	<wpt lat="52.657069" lon="13.487856">
		<name>BE-092</name>
		<cmt>Hobrechtsfelder Chaussee, Parkplatz Steine ohne Gr</cmt>
		<desc>Hobrechtsfelder Chaussee, Parkplatz Steine ohne Gr</desc>
		<src>Berliner Forsten</src>
	</wpt>
	<wpt lat="52.627637" lon="13.400427">
		<name>BE-093</name>
		<cmt>Hauptstr. Blankenfelde, Parkplatz, Jg. 802 / Jg. 804</cmt>
		<desc>Hauptstr. Blankenfelde, Parkplatz, Jg. 802 / Jg. 804</desc>
		<src>Berliner Forsten</src>
	</wpt>
	<wpt lat="52.623436" lon="13.456262">
		<name>BE-094</name>
		<cmt>Bucher Str., Parkplatz, Jg. 510 / Jg. 511</cmt>
		<desc>Bucher Str., Parkplatz, Jg. 510 / Jg. 511</desc>
		<src>Berliner Forsten</src>
	</wpt>
	<wpt lat="52.572307052309604" lon="13.187827876863441">
		<name>BE-016</name>
		<cmt>Schönwalder Allee, Parkplatz, Jg. 18 / Jg. 29</cmt>
		<desc>Schönwalder Allee, Parkplatz, Jg. 18 / Jg. 29</desc>
		<src>Berliner Forsten</src>
	</wpt>
	<wpt lat="52.561674" lon="13.196024">
		<name>BE-017</name>
		<cmt>Wirtschaftshof Schönwalder Allee 53</cmt>
		<desc>Wirtschaftshof Schönwalder Allee 53</desc>
		<src>Berliner Forsten</src>
	</wpt>
	<wpt lat="52.566494" lon="13.155604">
		<name>BE-018</name>
		<cmt>Radelandstr., Waldeingang Jg. 49, Reiterhof</cmt>
		<desc>Radelandstr., Waldeingang Jg. 49, Reiterhof</desc>
		<src>Berliner Forsten</src>
	</wpt>
	<wpt lat="52.587284" lon="13.141988">
		<name>BE-019</name>
		<cmt>Eiskellerweg / Berliner Mauerradweg, Jg. 70f</cmt>
		<desc>Eiskellerweg / Berliner Mauerradweg, Jg. 70f</desc>
		<src>Berliner Forsten</src>
	</wpt>
	<wpt lat="52.595454" lon="13.158764">
		<name>BE-020</name>
		<cmt>Schönwalder Allee, Waldeingang, Jg. 68</cmt>
		<desc>Schönwalder Allee, Waldeingang, Jg. 68</desc>
		<src>Berliner Forsten</src>
	</wpt>
	<wpt lat="52.585124" lon="13.177147">
		<name>BE-021</name>
		<cmt>Schönwalder Allee / Oberjägerweg, Parkplatz</cmt>
		<desc>Schönwalder Allee / Oberjägerweg, Parkplatz</desc>
		<src>Berliner Forsten</src>
	</wpt>
	<wpt lat="52.584345" lon="13.207019">
		<name>BE-022</name>
		<cmt>Niederneuendorfer Allee, Bushaltest. Bürgerablage</cmt>
		<desc>Niederneuendorfer Allee, Bushaltest. Bürgerablage</desc>
		<src>Berliner Forsten</src>
	</wpt>
	<wpt lat="52.575452" lon="13.230779">
		<name>BE-006</name>
		<cmt>Gerlindeweg 34, Waldeingang ggü.</cmt>
		<desc>Gerlindeweg 34, Waldeingang ggü.</desc>
		<src>Berliner Forsten</src>
	</wpt>
	<wpt lat="52.585504" lon="13.253715">
		<name>BE-007</name>
		<cmt>Schwarzer Weg, Waldparkplatz Wildgehege</cmt>
		<desc>Schwarzer Weg, Waldparkplatz Wildgehege</desc>
		<src>Berliner Forsten</src>
	</wpt>
	<wpt lat="52.579016" lon="13.243923">
		<name>BE-008</name>
		<cmt>Parkpl. Strandbad Tegel</cmt>
		<desc>Parkpl. Strandbad Tegel</desc>
		<src>Berliner Forsten</src>
	</wpt>
	<wpt lat="52.593554" lon="13.248803">
		<name>BE-009</name>
		<cmt>Konradshöher Str., Bushaltest. Mühlenweg</cmt>
		<desc>Konradshöher Str., Bushaltest. Mühlenweg</desc>
		<src>Berliner Forsten</src>
	</wpt>
	<wpt lat="52.589324" lon="13.240997">
		<name>BE-010</name>
		<cmt>Konradshöher Str., Bushaltest. Försterweg</cmt>
		<desc>Konradshöher Str., Bushaltest. Försterweg</desc>
		<src>Berliner Forsten</src>
	</wpt>
	<wpt lat="52.596336" lon="13.223957">
		<name>BE-011</name>
		<cmt>Rallenweg / Mühlenweg, Waldspielplatz</cmt>
		<desc>Rallenweg / Mühlenweg, Waldspielplatz</desc>
		<src>Berliner Forsten</src>
	</wpt>
	<wpt lat="52.46464" lon="13.127888">
		<name>BE-023</name>
		<cmt>Gottfried-Arnold-Weg, Schilfdachkapelle</cmt>
		<desc>Gottfried-Arnold-Weg, Schilfdachkapelle</desc>
		<src>Berliner Forsten</src>
	</wpt>
	<wpt lat="52.455007" lon="13.131746">
		<name>BE-024</name>
		<cmt>Fuchsbergweg 15, Waldeingang ggü., Jg. 85</cmt>
		<desc>Fuchsbergweg 15, Waldeingang ggü., Jg. 85</desc>
		<src>Berliner Forsten</src>
	</wpt>
	<wpt lat="52.461986" lon="13.170189">
		<name>BE-025</name>
		<cmt>Kladower Damm / Breitehornweg, Waldparkpl.</cmt>
		<desc>Kladower Damm / Breitehornweg, Waldparkpl.</desc>
		<src>Berliner Forsten</src>
	</wpt>
	<wpt lat="52.467769" lon="13.166372">
		<name>BE-026</name>
		<cmt>Kladower Damm 187, Waldeingang, Jg. 87 / Jg. 89</cmt>
		<desc>Kladower Damm 187, Waldeingang, Jg. 87 / Jg. 89</desc>
		<src>Berliner Forsten</src>
	</wpt>
	<wpt lat="52.481491" lon="13.147846">
		<name>BE-027</name>
		<cmt>Groß-Glienicker Weg, Waldparkpl., Jg. 100 / Jg. 101</cmt>
		<desc>Groß-Glienicker Weg, Waldparkpl., Jg. 100 / Jg. 101</desc>
		<src>Berliner Forsten</src>
	</wpt>
	<wpt lat="52.562005" lon="13.25496">
		<name>BE-028</name>
		<cmt>Bernauer Str. / Maienwerderweg</cmt>
		<desc>Bernauer Str. / Maienwerderweg</desc>
		<src>Berliner Forsten</src>
	</wpt>
	<wpt lat="52.570454" lon="13.277505">
		<name>BE-029</name>
		<cmt>Kamener Weg / Waldeingang, Jg. 59</cmt>
		<desc>Kamener Weg / Waldeingang, Jg. 59</desc>
		<src>Berliner Forsten</src>
	</wpt>
	<wpt lat="52.568362" lon="13.256499">
		<name>BE-030</name>
		<cmt>Wasserrettungsstation Reiswerder</cmt>
		<desc>Wasserrettungsstation Reiswerder</desc>
		<src>Berliner Forsten</src>
	</wpt>
	<wpt lat="52.649823" lon="13.294956">
		<name>BE-001</name>
		<cmt>Oranienburger Chaussee, Waldeingang, Jg. 113/114</cmt>
		<desc>Oranienburger Chaussee, Waldeingang, Jg. 113/114</desc>
		<src>Berliner Forsten</src>
	</wpt>
	<wpt lat="52.614732" lon="13.24822">
		<name>BE-002</name>
		<cmt>Autobahnausfahrt Schulzendorfer Str.</cmt>
		<desc>Autobahnausfahrt Schulzendorfer Str.</desc>
		<src>Berliner Forsten</src>
	</wpt>
	<wpt lat="52.609077" lon="13.285344">
		<name>BE-003</name>
		<cmt>Schulzendorfer Str. 144A, Waldparkplatz</cmt>
		<desc>Schulzendorfer Str. 144A, Waldparkplatz</desc>
		<src>Berliner Forsten</src>
	</wpt>
	<wpt lat="52.625423" lon="13.288612">
		<name>BE-004</name>
		<cmt>Falkentaler Steig, Waldeingang</cmt>
		<desc>Falkentaler Steig, Waldeingang</desc>
		<src>Berliner Forsten</src>
	</wpt>
	<wpt lat="52.626029" lon="13.267625">
		<name>BE-005</name>
		<cmt>Rote Chaussee / Am Eichenhain, Waldeingang</cmt>
		<desc>Rote Chaussee / Am Eichenhain, Waldeingang</desc>
		<src>Berliner Forsten</src>
	</wpt>
	<wpt lat="52.593748" lon="13.262572">
		<name>BE-012</name>
		<cmt>Schwarzer Weg / An der Malche, Waldeingang ggü.</cmt>
		<desc>Schwarzer Weg / An der Malche, Waldeingang ggü.</desc>
		<src>Berliner Forsten</src>
	</wpt>
	<wpt lat="52.599268" lon="13.260465">
		<name>BE-013</name>
		<cmt>Heiligenseestr., Bushaltest. Schulzendorfer Weg</cmt>
		<desc>Heiligenseestr., Bushaltest. Schulzendorfer Weg</desc>
		<src>Berliner Forsten</src>
	</wpt>
	<wpt lat="52.605721" lon="13.259684">
		<name>BE-014</name>
		<cmt>Am Tegelgrund, Waldeingang, Bahnunterführung</cmt>
		<desc>Am Tegelgrund, Waldeingang, Bahnunterführung</desc>
		<src>Berliner Forsten</src>
	</wpt>
	<wpt lat="52.599938" lon="13.252087">
		<name>BE-015</name>
		<cmt>Heiligenseestr. / Konradshöher Str.</cmt>
		<desc>Heiligenseestr. / Konradshöher Str.</desc>
		<src>Berliner Forsten</src>
	</wpt>
	<wpt lat="52.47079" lon="13.169558">
		<name>BE-031</name>
		<cmt>Kladower Damm, Bushaltest. Breitehornweg</cmt>
		<desc>Kladower Damm, Bushaltest. Breitehornweg</desc>
		<src>Berliner Forsten</src>
	</wpt>
	<wpt lat="52.508964" lon="13.207577">
		<name>BE-032</name>
		<cmt>Siemenswerderweg, Parkplatz</cmt>
		<desc>Siemenswerderweg, Parkplatz</desc>
		<src>Berliner Forsten</src>
	</wpt>
	<wpt lat="52.412727" lon="13.63383">
		<name>BE-095</name>
		<cmt>Altes Wasserwerk Müggelberge, Jg. 404</cmt>
		<desc>Altes Wasserwerk Müggelberge, Jg. 404</desc>
		<src>Berliner Forsten</src>
	</wpt>
	<wpt lat="52.61214" lon="13.285859">
		<name>BE-096</name>
		<cmt>Ehrenpfortensteig, Waldparkplatz</cmt>
		<desc>Ehrenpfortensteig, Waldparkplatz</desc>
		<src>Berliner Forsten</src>
	</wpt>
	<wpt lat="52.584043" lon="13.252424">
		<name>BE-097</name>
		<cmt>Schwarzer Weg 80, RFö Tegelsee</cmt>
		<desc>Schwarzer Weg 80, RFö Tegelsee</desc>
		<src>Berliner Forsten</src>
	</wpt>
	<wpt lat="52.567995" lon="13.191386">
		<name>BE-098</name>
		<cmt>Schönwalder Allee 50, RFö Spandau</cmt>
		<desc>Schönwalder Allee 50, RFö Spandau</desc>
		<src>Berliner Forsten</src>
	</wpt>
	<wpt lat="52.493481" lon="13.202658">
		<name>BE-099</name>
		<cmt>Havelchaussee 96, RFö Saubucht</cmt>
		<desc>Havelchaussee 96, RFö Saubucht</desc>
		<src>Berliner Forsten</src>
	</wpt>
	<wpt lat="52.43972" lon="13.195352">
		<name>BE-100</name>
		<cmt>Kronprinzessinnenweg 60, RFö Wannsee</cmt>
		<desc>Kronprinzessinnenweg 60, RFö Wannsee</desc>
		<src>Berliner Forsten</src>
	</wpt>
	<wpt lat="52.402423" lon="13.70643">
		<name>BE-101</name>
		<cmt>Gosener Landstr. 101, RFö Fahlenberg</cmt>
		<desc>Gosener Landstr. 101, RFö Fahlenberg</desc>
		<src>Berliner Forsten</src>
	</wpt>
	<wpt lat="52.425499" lon="13.626985">
		<name>BE-102</name>
		<cmt>Müggelheimer Damm 141, RFö Teufelssee</cmt>
		<desc>Müggelheimer Damm 141, RFö Teufelssee</desc>
		<src>Berliner Forsten</src>
	</wpt>
	<wpt lat="52.453092" lon="13.692909">
		<name>BE-103</name>
		<cmt>Alter Fischerweg 5, RFö Rahnsdorf</cmt>
		<desc>Alter Fischerweg 5, RFö Rahnsdorf</desc>
		<src>Berliner Forsten</src>
	</wpt>
	<wpt lat="52.443459" lon="13.679165">
		<name>BE-104</name>
		<cmt>Fürstenwalder Damm 852, RFö Müggelsee Wirtschaftshof</cmt>
		<desc>Fürstenwalder Damm 852, RFö Müggelsee Wirtschaftshof</desc>
		<src>Berliner Forsten</src>
	</wpt>
	<wpt lat="52.412223" lon="13.586062">
		<name>BE-105</name>
		<cmt>Regattastr. 192, RFö Grünau</cmt>
		<desc>Regattastr. 192, RFö Grünau</desc>
		<src>Berliner Forsten</src>
	</wpt>
	<wpt lat="52.646167" lon="13.482285">
		<name>BE-106</name>
		<cmt>Hobrechtsfelder Chaussee 119, RFö Buch</cmt>
		<desc>Hobrechtsfelder Chaussee 119, RFö Buch</desc>
		<src>Berliner Forsten</src>
	</wpt>
	<wpt lat="52.607306" lon="13.39927">
		<name>BE-107</name>
		<cmt>Blankenfelder Ch. 7, RFö Blankenfelde</cmt>
		<desc>Blankenfelder Ch. 7, RFö Blankenfelde</desc>
		<src>Berliner Forsten</src>
	</wpt>
</gpx>